[{"OBJECT_NAME":"ION SCV-022","OBJECT_ID":"2025-276S","EPOCH":"2026-03-09T17:53:05.489952","MEAN_MOTION":14.97347265,"ECCENTRICITY":0.00045393,"INCLINATION":97.5376,"RA_OF_ASC_NODE":142.978,"ARG_OF_PERICENTER":154.7099,"MEAN_ANOMALY":205.4346,"EPHEMERIS_TYPE":0,"CLASSIFICATION_TYPE":"U","NORAD_CAT_ID":66682,"ELEMENT_SET_NO":999,"REV_AT_EPOCH":1519,"BSTAR":0.00017276803,"MEAN_MOTION_DOT":1.95e-5,"MEAN_MOTION_DDOT":0},{"OBJECT_NAME":"STARLINK-35788","OBJECT_ID":"2025-280L","EPOCH":"2026-03-09T23:39:18.558144","MEAN_MOTION":14.98331939,"ECCENTRICITY":0.00020887,"INCLINATION":70.0032,"RA_OF_ASC_NODE":333.5703,"ARG_OF_PERICENTER":267.0048,"MEAN_ANOMALY":93.0873,"EPHEMERIS_TYPE":0,"CLASSIFICATION_TYPE":"U","NORAD_CAT_ID":66831,"ELEMENT_SET_NO":999,"REV_AT_EPOCH":1612,"BSTAR":0.00071711575,"MEAN_MOTION_DOT":8.474e-5,"MEAN_MOTION_DDOT":0}]
